NORAD_CAT_ID,OBJECT_NAME,OBJECT_TYPE,EPOCH,MEAN_MOTION,ECCENTRICITY,INCLINATION,RA_OF_ASC_NODE,ARG_OF_PERICENTER,MEAN_ANOMALY,BSTAR,MEAN_MOTION_DOT,MEAN_MOTION_DDOT,TLE_LINE0,TLE_LINE1,TLE_LINE2,SEMIMAJOR_AXIS,PERIOD,APOGEE,PERIGEE,DECAYED
53255.0,STARLINK-4142,PAYLOAD,2023-04-16 20:05:41,15.0885573,0.0001235,53.2145,263.0048,74.4828,285.6301,0.00058557,9.048e-05,0.0,0 STARLINK-4142,1 53255U 22086P   23106.83728039  .00009048  00000-0  58557-3 0  9994,2 53255  53.2145 263.0048 0001235  74.4828 285.6301 15.08855730 41360,6917.832,95.437,540.552,538.843,0.0
53255.0,STARLINK-4142,PAYLOAD,2023-04-17 13:34:55,15.08840599,0.0001191,53.2147,259.7339,78.3366,281.7759,0.00018573,2.669e-05,0.0,0 STARLINK-4142,1 53255U 22086P   23107.56592589  .00002669  00000-0  18573-3 0  9990,2 53255  53.2147 259.7339 0001191  78.3366 281.7759 15.08840599 41471,6917.879,95.438,540.567,538.92,0.0
53255.0,STARLINK-4142,PAYLOAD,2023-04-17 19:56:28,15.08849836,0.0001226,53.2153,258.5445,76.2201,283.8927,0.00045163,6.909e-05,0.0,0 STARLINK-4142,1 53255U 22086P   23107.83088378  .00006909  00000-0  45163-3 0  9992,2 53255  53.2153 258.5445 0001226  76.2201 283.8927 15.08849836 41515,6917.85,95.437,540.563,538.867,0.0
53255.0,STARLINK-4142,PAYLOAD,2023-04-18 10:14:56,15.08842869,0.0001706,53.2157,255.869,99.7027,260.4157,0.00021308,3.105e-05,0.0,0 STARLINK-4142,1 53255U 22086P   23108.42704703  .00003105  00000-0  21308-3 0  9995,2 53255  53.2157 255.8690 0001706  99.7027 260.4157 15.08842869 41605,6917.872,95.437,540.917,538.556,0.0
53255.0,STARLINK-4142,PAYLOAD,2023-04-18 16:36:29,15.08847449,0.000123,53.2156,254.6788,87.9238,272.1895,0.00056649,8.741e-05,0.0,0 STARLINK-4142,1 53255U 22086P   23108.69200555  .00008741  00000-0  56649-3 0  9997,2 53255  53.2156 254.6788 0001230  87.9238 272.1895 15.08847449 41466,6917.858,95.437,540.574,538.872,0.0
53255.0,STARLINK-4142,PAYLOAD,2023-04-18 19:47:15,15.08854386,0.0001115,53.2157,254.0836,85.7553,274.3566,0.0008366,0.00013057,0.0,0 STARLINK-4142,1 53255U 22086P   23108.82448441  .00013057  00000-0  83660-3 0  9999,2 53255  53.2157 254.0836 0001115  85.7553 274.3566 15.08854386 41662,6917.836,95.437,540.473,538.93,0.0
53255.0,STARLINK-4142,PAYLOAD,2023-04-19 10:05:44,15.08841855,0.00013,53.2163,251.4069,80.9145,279.1994,0.00057286,8.841e-05,0.0,0 STARLINK-4142,1 53255U 22086P   23109.42064849  .00008841  00000-0  57286-3 0  9992,2 53255  53.2163 251.4069 0001300  80.9145 279.1994 15.08841855 41753,6917.875,95.437,540.639,538.84,0.0
53255.0,STARLINK-4142,PAYLOAD,2023-04-19 16:27:16,15.08850495,0.0001604,53.2166,250.2175,79.1963,280.921,0.00085375,0.00013329,0.0,0 STARLINK-4142,1 53255U 22086P   23109.68560778  .00013329  00000-0  85375-3 0  9999,2 53255  53.2166 250.2175 0001604  79.1963 280.9210 15.08850495 41791,6917.848,95.437,540.823,538.604,0.0
53255.0,STARLINK-4142,PAYLOAD,2023-04-20 01:59:35,15.08847538,8.91e-05,53.2162,248.4348,54.4951,305.6124,0.00080645,0.00012573,0.0,0 STARLINK-4142,1 53255U 22086P   23110.08304606  .00012573  00000-0  80645-3 0  9996,2 53255  53.2162 248.4348 0000891  54.4951 305.6124 15.08847538 41678,6917.857,95.437,540.339,539.106,0.0
53255.0,STARLINK-4142,PAYLOAD,2023-04-20 08:21:07,15.08848955,0.0001487,53.2156,247.2448,65.3387,294.776,0.0008064,0.00012572,0.0,0 STARLINK-4142,1 53255U 22086P   23110.34800747  .00012572  00000-0  80640-3 0  9996,2 53255  53.2156 247.2448 0001487  65.3387 294.7760 15.08848955 41897,6917.853,95.437,540.747,538.689,0.0
53255.0,STARLINK-4142,PAYLOAD,2023-04-20 16:18:03,15.08850288,0.0001554,53.2156,245.7584,68.1312,291.9846,0.0011334,0.00017801,0.0,0 STARLINK-4142,1 53255U 22086P   23110.67920746  .00017801  00000-0  11334-2 0  9997,2 53255  53.2156 245.7584 0001554  68.1312 291.9846 15.08850288 41767,6917.849,95.437,540.789,538.639,0.0
53255.0,STARLINK-4142,PAYLOAD,2023-04-20 19:28:49,15.0885441,0.0001526,53.2158,245.1637,62.7162,297.3985,0.0012257,0.00019281,0.0,0 STARLINK-4142,1 53255U 22086P   23110.81168630  .00019281  00000-0  12257-2 0  9998,2 53255  53.2158 245.1637 0001526  62.7162 297.3985 15.08854410 41961,6917.836,95.437,540.757,538.646,0.0
53255.0,STARLINK-4142,PAYLOAD,2023-04-21 01:50:22,15.08832235,0.0002383,53.2161,243.9737,80.0579,280.0682,0.0004812,7.377e-05,0.0,0 STARLINK-4142,1 53255U 22086P   23111.07665335  .00007377  00000-0  48120-3 0  9993,2 53255  53.2161 243.9737 0002383  80.0579 280.0682 15.08832235 42009,6917.904,95.438,541.418,538.121,0.0
53255.0,STARLINK-4142,PAYLOAD,2023-04-21 17:44:13,15.08853367,0.0001541,53.2157,240.999,70.5234,289.5924,0.00085708,0.00013384,0.0,0 STARLINK-4142,1 53255U 22086P   23111.73904820  .00013384  00000-0  85708-3 0  9999,2 53255  53.2157 240.9990 0001541  70.5234 289.5924 15.08853367 41921,6917.84,95.437,540.771,538.638,0.0
53255.0,STARLINK-4142,PAYLOAD,2023-04-21 20:54:59,15.08861487,0.000154,53.2154,240.4049,68.3724,291.7432,0.0016101,0.00025445,0.0,0 STARLINK-4142,1 53255U 22086P   23111.87152675  .00025445  00000-0  16101-2 0  9998,2 53255  53.2154 240.4049 0001540  68.3724 291.7432 15.08861487 42120,6917.815,95.436,540.745,538.614,0.0
53255.0,STARLINK-4142,PAYLOAD,2023-04-22 08:02:42,15.08838156,9.96e-05,53.2149,238.3243,56.0149,304.0938,0.00043603,6.658e-05,0.0,0 STARLINK-4142,1 53255U 22086P   23112.33520931  .00006658  00000-0  43603-3 0  9997,2 53255  53.2149 238.3243 0000996  56.0149 304.0938 15.08838156 42019,6917.886,95.438,540.44,539.062,0.0
53255.0,STARLINK-4142,PAYLOAD,2023-04-22 20:45:46,15.08865535,0.0001406,53.2136,235.9425,121.8316,238.2814,0.0012108,0.00019048,0.0,0 STARLINK-4142,1 53255U 22086P   23112.86512029  .00019048  00000-0  12108-2 0  9996,2 53255  53.2136 235.9425 0001406 121.8316 238.2814 15.08865535 42274,6917.802,95.436,540.64,538.695,0.0
53255.0,STARLINK-4142,PAYLOAD,2023-04-23 07:53:29,15.08829211,8.5e-05,53.2153,233.8629,77.7201,282.3886,0.00017148,2.442e-05,0.0,0 STARLINK-4142,1 53255U 22086P   23113.32880986  .00002442  00000-0  17148-3 0  9998,2 53255  53.2153 233.8629 0000850  77.7201 282.3886 15.08829211 42168,6917.913,95.438,540.366,539.19,0.0
53255.0,STARLINK-4142,PAYLOAD,2023-04-23 19:01:11,15.08861259,0.0001366,53.2143,231.7813,88.5742,271.5407,0.002718,0.0004326,0.0,0 STARLINK-4142,1 53255U 22086P   23113.79248918  .00043260  00000-0  27180-2 0  9991,2 53255  53.2143 231.7813 0001366  88.5742 271.5407 15.08861259 42417,6917.815,95.436,540.625,538.735,0.0
53255.0,STARLINK-4142,PAYLOAD,2023-04-24 07:44:15,15.08934844,0.0001436,53.2147,229.403,99.0966,261.0189,0.0067839,0.00109647,0.0,0 STARLINK-4142,1 53255U 22086P   23114.32240217  .00109647  00000-0  67839-2 0  9992,2 53255  53.2147 229.4030 0001436  99.0966 261.0189 15.08934844 42310,6917.591,95.432,540.449,538.462,0.0
53255.0,STARLINK-4142,PAYLOAD,2023-04-24 18:51:56,15.08919321,0.0001452,53.2151,227.3209,91.5195,268.5963,0.0025964,0.00041367,0.0,0 STARLINK-4142,1 53255U 22086P   23114.78606490  .00041367  00000-0  25964-2 0  9998,2 53255  53.2151 227.3209 0001452  91.5195 268.5963 15.08919321 42381,6917.638,95.433,540.507,538.499,0.0
53255.0,STARLINK-4142,PAYLOAD,2023-04-25 10:45:48,15.08807247,0.0001318,53.2167,224.3469,91.6467,268.4676,-0.00065616,-0.00010706,0.0,0 STARLINK-4142,1 53255U 22086P   23115.44848109 -.00010706  00000-0 -65616-3 0  9991,2 53255  53.2167 224.3469 0001318  91.6467 268.4676 15.08807247 42661,6917.981,95.44,540.757,538.934,0.0
53255.0,STARLINK-4142,PAYLOAD,2023-04-26 12:12:00,15.08835169,0.000145,53.2156,219.5904,66.005,294.1094,0.0014775,0.00023302,0.0,0 STARLINK-4142,1 53255U 22086P   23116.50834397  .00023302  00000-0  14775-2 0  9996,2 53255  53.2156 219.5904 0001450  66.0050 294.1094 15.08835169 42642,6917.895,95.438,540.763,538.757,0.0
53255.0,STARLINK-4142,PAYLOAD,2023-04-27 12:02:47,15.08873981,0.0001458,53.2156,215.1302,59.0292,301.0843,0.0013192,0.00020789,0.0,0 STARLINK-4142,1 53255U 22086P   23117.50193469  .00020789  00000-0  13192-2 0  9993,2 53255  53.2156 215.1302 0001458  59.0292 301.0843 15.08873981 42974,6917.777,95.435,540.65,538.633,0.0
53255.0,STARLINK-4142,PAYLOAD,2023-04-27 16:48:56,15.08883078,0.0001494,53.2152,214.2383,54.7339,305.3793,0.0013965,0.00022033,0.0,0 STARLINK-4142,1 53255U 22086P   23117.70064947  .00022033  00000-0  13965-2 0  9995,2 53255  53.2152 214.2383 0001494  54.7339 305.3793 15.08883078 42826,6917.749,95.435,540.647,538.58,0.0
53255.0,STARLINK-4142,PAYLOAD,2023-04-28 05:32:01,15.08858772,0.0001674,53.215,211.8599,64.2867,295.8298,0.00056387,8.702e-05,0.0,0 STARLINK-4142,1 53255U 22086P   23118.23056773  .00008702  00000-0  56387-3 0  9995,2 53255  53.2150 211.8599 0001674  64.2867 295.8298 15.08858772 42903,6917.823,95.436,540.846,538.53,0.0
53255.0,STARLINK-4142,PAYLOAD,2023-04-28 11:53:33,15.08859403,0.000152,53.2154,210.6702,64.233,295.8819,0.00029618,4.431e-05,0.0,0 STARLINK-4142,1 53255U 22086P   23118.49552474  .00004431  00000-0  29618-3 0  9994,2 53255  53.2154 210.6702 0001520  64.2330 295.8819 15.08859403 43121,6917.821,95.436,540.738,538.635,0.0
53255.0,STARLINK-4142,PAYLOAD,2023-04-29 05:22:48,15.08840796,0.0001682,53.2145,207.3989,72.5102,287.6073,0.00034385,5.189e-05,0.0,0 STARLINK-4142,1 53255U 22086P   23119.22416889  .00005189  00000-0  34385-3 0  9993,2 53255  53.2145 207.3989 0001682  72.5102 287.6073 15.08840796 43057,6917.878,95.438,540.907,538.579,0.0
53255.0,STARLINK-4142,PAYLOAD,2023-04-29 13:19:44,15.08833957,0.0001359,53.2151,205.9123,72.8342,287.2799,0.0002051,2.977e-05,0.0,0 STARLINK-4142,1 53255U 22086P   23119.55537150  .00002977  00000-0  20510-3 0  9991,2 53255  53.2151 205.9123 0001359  72.8342 287.2799 15.08833957 43285,6917.899,95.438,540.704,538.824,0.0
53255.0,STARLINK-4142,PAYLOAD,2023-04-29 18:05:53,15.088402,0.0001318,53.2147,205.0198,72.2508,287.8628,0.00054408,8.382e-05,0.0,0 STARLINK-4142,1 53255U 22086P   23119.75409149  .00008382  00000-0  54408-3 0  9998,2 53255  53.2147 205.0198 0001318  72.2508 287.8628 15.08840200 43136,6917.88,95.438,540.657,538.833,0.0
